*******************************************************************************
Ephemeris / WWW_USER Mon Mar 24 09:13:44 2025 Pasadena, USA      / Horizons    
*******************************************************************************
Target body name: (2013 AZ60)                     {source: JPL#49}
Center body name: Earth (399)                     {source: DE441}
Center-site name: Mauna Kea
*******************************************************************************
Start time      : A.D. 2018-Nov-21 03:51:00.0000 UT      
Stop  time      : A.D. 2018-Nov-21 16:24:00.0000 UT      
Step-size       : 1 minutes
*******************************************************************************
Target pole/equ : undefined
Target radii    : undefined                                                    
Center geodetic : 204.5278, 19.8260847, 4.21024   {E-lon(deg),Lat(deg),Alt(km)}
Center cylindric: 204.5278, 6006.35451, 2151.0229 {E-lon(deg),Dxy(km),Dz(km)}
Center pole/equ : ITRF93                          {East-longitude positive}
Center radii    : 6378.137, 6378.137, 6356.752 km {Equator_a, b, pole_c}       
Target primary  : Sun
Vis. interferer : MOON (R_eq= 1737.400) km        {source: DE441}
Rel. light bend : Sun                             {source: DE441}
Rel. lght bnd GM: 1.3271E+11 km^3/s^2                                          
Small-body perts: Yes                             {source: SB441-N16}
Atmos refraction: NO (AIRLESS)
RA format       : HMS
Time format     : CAL 
Calendar mode   : Mixed Julian/Gregorian
RTS-only print  : NO       
EOP file        : eop.250321.p250617                                           
EOP coverage    : DATA-BASED 1962-JAN-20 TO 2025-MAR-21. PREDICTS-> 2025-JUN-16
Units conversion: 1 au= 149597870.700 km, c= 299792.458 km/s, 1 day= 86400.0 s 
Table cut-offs 1: Elevation (-90.0deg=NO ),Airmass (>38.000=NO), Daylight (YES)
Table cut-offs 2: Solar elongation (  0.0,180.0=NO ),Local Hour Angle( 0.0=NO )
Table cut-offs 3: RA/DEC angular rate (     0.0=NO )                           
*******************************************************************************
Initial IAU76/J2000 heliocentric ecliptic osculating elements (au, days, deg.):
  EPOCH=  2457400.5 ! 2016-Jan-13.00 (TDB)         Residual RMS= .1326         
   EC= .9891456016948332   QR= 7.910280980491398   TP= 2456989.3208761909      
   OM= 349.2102750469422   W=  158.2320149266156   IN= 16.53862471305098       
  Equivalent ICRF heliocentric cartesian coordinates (au, au/d):
   X=-8.215502218447208E+00  Y= 1.083611838195559E+00  Z= 3.298265209415168E-01
  VX=-2.822922434188891E-03 VY=-6.008885131743716E-03 VZ=-5.184670886061429E-03
Asteroid physical parameters (km, seconds, rotational period in hours):        
   GM= n.a.                RAD= n.a.               ROTPER= 9.39                
   H= 10.3                 G= .150                 B-V= n.a.                   
                           ALBEDO= n.a.            STYP= n.a.                  
*******************************************************************************
 Date__(UT)__HR:MN     R.A._________(ICRF)_________DEC
******************************************************
$$SOE
 2018-Nov-21 03:51 Cm  14 02 49.921766 -24 23 27.90883
 2018-Nov-21 03:52 Cm  14 02 49.938254 -24 23 28.02121
 2018-Nov-21 03:53 Cm  14 02 49.954743 -24 23 28.13359
 2018-Nov-21 03:54 Cm  14 02 49.971233 -24 23 28.24597
 2018-Nov-21 03:55 Cm  14 02 49.987724 -24 23 28.35835
 2018-Nov-21 03:56 Cm  14 02 50.004215 -24 23 28.47074
 2018-Nov-21 03:57 Cm  14 02 50.020708 -24 23 28.58312
 2018-Nov-21 03:58 Cm  14 02 50.037201 -24 23 28.69551
 2018-Nov-21 03:59 Cm  14 02 50.053695 -24 23 28.80790
 2018-Nov-21 04:00 Cm  14 02 50.070189 -24 23 28.92029
 2018-Nov-21 04:01 Cm  14 02 50.086685 -24 23 29.03269
 2018-Nov-21 04:02 Cm  14 02 50.103181 -24 23 29.14509
 2018-Nov-21 04:03 Cm  14 02 50.119678 -24 23 29.25749
 2018-Nov-21 04:04 Cm  14 02 50.136176 -24 23 29.36989
 2018-Nov-21 04:05 Nm  14 02 50.152674 -24 23 29.48229
 2018-Nov-21 04:06 Nm  14 02 50.169174 -24 23 29.59470
 2018-Nov-21 04:07 Nm  14 02 50.185674 -24 23 29.70710
 2018-Nov-21 04:08 Nm  14 02 50.202175 -24 23 29.81951
 2018-Nov-21 04:09 Nm  14 02 50.218677 -24 23 29.93193
 2018-Nov-21 04:10 Nm  14 02 50.235179 -24 23 30.04434
 2018-Nov-21 04:11 Nm  14 02 50.251683 -24 23 30.15676
 2018-Nov-21 04:12 Nm  14 02 50.268187 -24 23 30.26918
 2018-Nov-21 04:13 Nm  14 02 50.284692 -24 23 30.38160
 2018-Nov-21 04:14 Nm  14 02 50.301197 -24 23 30.49403
 2018-Nov-21 04:15 Nm  14 02 50.317703 -24 23 30.60645
 2018-Nov-21 04:16 Nm  14 02 50.334211 -24 23 30.71888
 2018-Nov-21 04:17 Nm  14 02 50.350719 -24 23 30.83131
 2018-Nov-21 04:18 Nm  14 02 50.367227 -24 23 30.94375
 2018-Nov-21 04:19 Nm  14 02 50.383737 -24 23 31.05619
 2018-Nov-21 04:20 Nm  14 02 50.400247 -24 23 31.16863
 2018-Nov-21 04:21 Nm  14 02 50.416758 -24 23 31.28107
 2018-Nov-21 04:22 Nm  14 02 50.433269 -24 23 31.39351
 2018-Nov-21 04:23 Nm  14 02 50.449782 -24 23 31.50596
 2018-Nov-21 04:24 Nm  14 02 50.466295 -24 23 31.61841
 2018-Nov-21 04:25 Nm  14 02 50.482809 -24 23 31.73086
 2018-Nov-21 04:26 Nm  14 02 50.499324 -24 23 31.84332
 2018-Nov-21 04:27 Nm  14 02 50.515839 -24 23 31.95577
 2018-Nov-21 04:28 Nm  14 02 50.532355 -24 23 32.06823
 2018-Nov-21 04:29 Nm  14 02 50.548872 -24 23 32.18070
 2018-Nov-21 04:30 Nm  14 02 50.565390 -24 23 32.29316
 2018-Nov-21 04:31 Nm  14 02 50.581908 -24 23 32.40563
 2018-Nov-21 04:32 Am  14 02 50.598427 -24 23 32.51810
 2018-Nov-21 04:33 Am  14 02 50.614947 -24 23 32.63058
 2018-Nov-21 04:34 Am  14 02 50.631468 -24 23 32.74305
 2018-Nov-21 04:35 Am  14 02 50.647989 -24 23 32.85553
 2018-Nov-21 04:36 Am  14 02 50.664511 -24 23 32.96802
 2018-Nov-21 04:37 Am  14 02 50.681034 -24 23 33.08050
 2018-Nov-21 04:38 Am  14 02 50.697557 -24 23 33.19299
 2018-Nov-21 04:39 Am  14 02 50.714081 -24 23 33.30548
 2018-Nov-21 04:40 Am  14 02 50.730606 -24 23 33.41797
 2018-Nov-21 04:41 Am  14 02 50.747132 -24 23 33.53047
 2018-Nov-21 04:42 Am  14 02 50.763658 -24 23 33.64297
 2018-Nov-21 04:43 Am  14 02 50.780185 -24 23 33.75547
 2018-Nov-21 04:44 Am  14 02 50.796713 -24 23 33.86798
 2018-Nov-21 04:45 Am  14 02 50.813241 -24 23 33.98049
 2018-Nov-21 04:46 Am  14 02 50.829770 -24 23 34.09300
 2018-Nov-21 04:47 Am  14 02 50.846300 -24 23 34.20552
 2018-Nov-21 04:48 Am  14 02 50.862831 -24 23 34.31803
 2018-Nov-21 04:49 Am  14 02 50.879362 -24 23 34.43056
 2018-Nov-21 04:50 Am  14 02 50.895894 -24 23 34.54308
 2018-Nov-21 04:51 Am  14 02 50.912427 -24 23 34.65561
 2018-Nov-21 04:52 Am  14 02 50.928960 -24 23 34.76814
 2018-Nov-21 04:53 Am  14 02 50.945494 -24 23 34.88067
 2018-Nov-21 04:54 Am  14 02 50.962029 -24 23 34.99321
 2018-Nov-21 04:55 Am  14 02 50.978564 -24 23 35.10575
 2018-Nov-21 04:56 Am  14 02 50.995100 -24 23 35.21829
 2018-Nov-21 04:57 Am  14 02 51.011637 -24 23 35.33084
 2018-Nov-21 04:58 Am  14 02 51.028174 -24 23 35.44339
 2018-Nov-21 04:59  m  14 02 51.044712 -24 23 35.55594
 2018-Nov-21 05:00  m  14 02 51.061251 -24 23 35.66850
 2018-Nov-21 05:01  m  14 02 51.077790 -24 23 35.78106
 2018-Nov-21 05:02  m  14 02 51.094330 -24 23 35.89362
 2018-Nov-21 05:03  m  14 02 51.110871 -24 23 36.00619
 2018-Nov-21 05:04  m  14 02 51.127412 -24 23 36.11876
 2018-Nov-21 05:05  m  14 02 51.143954 -24 23 36.23133
 2018-Nov-21 05:06  m  14 02 51.160497 -24 23 36.34391
 2018-Nov-21 05:07  m  14 02 51.177040 -24 23 36.45649
 2018-Nov-21 05:08  m  14 02 51.193584 -24 23 36.56907
 2018-Nov-21 05:09  m  14 02 51.210129 -24 23 36.68166
 2018-Nov-21 05:10  m  14 02 51.226674 -24 23 36.79425
 2018-Nov-21 05:11  m  14 02 51.243220 -24 23 36.90684
 2018-Nov-21 05:12  m  14 02 51.259766 -24 23 37.01944
 2018-Nov-21 05:13  m  14 02 51.276314 -24 23 37.13204
 2018-Nov-21 05:14  m  14 02 51.292861 -24 23 37.24464
 2018-Nov-21 05:15  m  14 02 51.309410 -24 23 37.35725
 2018-Nov-21 05:16  m  14 02 51.325959 -24 23 37.46986
 2018-Nov-21 05:17  m  14 02 51.342508 -24 23 37.58248
 2018-Nov-21 05:18  m  14 02 51.359059 -24 23 37.69510
 2018-Nov-21 05:19  m  14 02 51.375610 -24 23 37.80772
 2018-Nov-21 05:20  m  14 02 51.392161 -24 23 37.92035
 2018-Nov-21 05:21  m  14 02 51.408713 -24 23 38.03297
 2018-Nov-21 05:22  m  14 02 51.425266 -24 23 38.14561
 2018-Nov-21 05:23  m  14 02 51.441819 -24 23 38.25825
 2018-Nov-21 05:24  m  14 02 51.458373 -24 23 38.37089
 2018-Nov-21 05:25  m  14 02 51.474928 -24 23 38.48353
 2018-Nov-21 05:26  m  14 02 51.491483 -24 23 38.59618
 2018-Nov-21 05:27  m  14 02 51.508039 -24 23 38.70883
 2018-Nov-21 05:28  m  14 02 51.524595 -24 23 38.82149
 2018-Nov-21 05:29  m  14 02 51.541152 -24 23 38.93415
 2018-Nov-21 05:30  m  14 02 51.557710 -24 23 39.04681
 2018-Nov-21 05:31  m  14 02 51.574268 -24 23 39.15948
 2018-Nov-21 05:32  m  14 02 51.590826 -24 23 39.27215
 2018-Nov-21 05:33  m  14 02 51.607386 -24 23 39.38482
 2018-Nov-21 05:34  m  14 02 51.623945 -24 23 39.49750
 2018-Nov-21 05:35  m  14 02 51.640506 -24 23 39.61018
 2018-Nov-21 05:36  m  14 02 51.657067 -24 23 39.72287
 2018-Nov-21 05:37  m  14 02 51.673628 -24 23 39.83556
 2018-Nov-21 05:38  m  14 02 51.690190 -24 23 39.94825
 2018-Nov-21 05:39  m  14 02 51.706753 -24 23 40.06095
 2018-Nov-21 05:40  m  14 02 51.723316 -24 23 40.17365
 2018-Nov-21 05:41  m  14 02 51.739880 -24 23 40.28636
 2018-Nov-21 05:42  m  14 02 51.756444 -24 23 40.39907
 2018-Nov-21 05:43  m  14 02 51.773009 -24 23 40.51178
 2018-Nov-21 05:44  m  14 02 51.789574 -24 23 40.62450
 2018-Nov-21 05:45  m  14 02 51.806140 -24 23 40.73722
 2018-Nov-21 05:46  m  14 02 51.822707 -24 23 40.84995
 2018-Nov-21 05:47  m  14 02 51.839274 -24 23 40.96268
 2018-Nov-21 05:48  m  14 02 51.855841 -24 23 41.07541
 2018-Nov-21 05:49  m  14 02 51.872409 -24 23 41.18815
 2018-Nov-21 05:50  m  14 02 51.888978 -24 23 41.30090
 2018-Nov-21 05:51  m  14 02 51.905547 -24 23 41.41364
 2018-Nov-21 05:52  m  14 02 51.922117 -24 23 41.52639
 2018-Nov-21 05:53  m  14 02 51.938687 -24 23 41.63915
